NORAD_CAT_ID,OBJECT_NAME,OBJECT_TYPE,EPOCH,MEAN_MOTION,ECCENTRICITY,INCLINATION,RA_OF_ASC_NODE,ARG_OF_PERICENTER,MEAN_ANOMALY,BSTAR,MEAN_MOTION_DOT,MEAN_MOTION_DDOT,TLE_LINE0,TLE_LINE1,TLE_LINE2,SEMIMAJOR_AXIS,PERIOD,APOGEE,PERIGEE,DECAYED
52695.0,STARLINK-4041,PAYLOAD,2024-04-28 22:25:15,15.08835461,0.0001094,53.2173,320.4563,68.7075,291.4034,-2.9676e-05,-7.6e-06,0.0,0 STARLINK-4041,1 52695U 22053AR  24119.93421042 -.00000760  00000-0 -29676-4 0  9990,2 52695  53.2173 320.4563 0001094  68.7075 291.4034 15.08835461108474,6917.894,95.438,540.516,539.002,0.0
52695.0,STARLINK-4041,PAYLOAD,2024-04-29 06:22:11,15.08832051,8.38e-05,53.2169,318.9706,85.6,274.5087,2.4695e-05,1.05e-06,0.0,0 STARLINK-4041,1 52695U 22053AR  24120.26541222  .00000105  00000-0  24695-4 0  9998,2 52695  53.2169 318.9706 0000838  85.6000 274.5087 15.08832051108529,6917.905,95.438,540.349,539.19,0.0
52695.0,STARLINK-4041,PAYLOAD,2024-04-29 22:16:03,15.08836918,0.000114,53.2182,315.9957,77.4279,282.6841,0.00014962,2.094e-05,0.0,0 STARLINK-4041,1 52695U 22053AR  24120.92781631  .00002094  00000-0  14962-3 0  9995,2 52695  53.2182 315.9957 0001140  77.4279 282.6841 15.08836918108628,6917.89,95.438,540.543,538.966,0.0
52695.0,STARLINK-4041,PAYLOAD,2024-04-30 06:12:59,15.08840869,0.0001117,53.2177,314.5116,84.904,275.208,0.00020628,2.997e-05,0.0,0 STARLINK-4041,1 52695U 22053AR  24121.25901663  .00002997  00000-0  20628-3 0  9999,2 52695  53.2177 314.5116 0001117  84.9040 275.2080 15.08840869108675,6917.878,95.437,540.515,538.97,0.0
52695.0,STARLINK-4041,PAYLOAD,2024-04-30 22:06:50,15.08855142,0.0001047,53.217,311.538,80.7011,279.4099,0.00049117,7.541e-05,0.0,0 STARLINK-4041,1 52695U 22053AR  24121.92141249  .00007541  00000-0  49117-3 0  9993,2 52695  53.2170 311.5380 0001047  80.7011 279.4099 15.08855142108779,6917.834,95.437,540.423,538.975,0.0
52695.0,STARLINK-4041,PAYLOAD,2024-05-01 12:25:18,15.08847706,0.000113,53.216,308.8623,79.4082,280.7037,0.00023777,3.499e-05,0.0,0 STARLINK-4041,1 52695U 22053AR  24122.51757285  .00003499  00000-0  23777-3 0  9994,2 52695  53.2160 308.8623 0001130  79.4082 280.7037 15.08847706108452,6917.857,95.437,540.504,538.94,0.0
52695.0,STARLINK-4041,PAYLOAD,2024-05-02 12:16:05,15.08844259,0.0001187,53.2148,304.4006,81.4789,278.6338,4.5314e-05,4.33e-06,0.0,0 STARLINK-4041,1 52695U 22053AR  24123.51117138  .00000433  00000-0  45314-4 0  9999,2 52695  53.2148 304.4006 0001187  81.4789 278.6338 15.08844259108601,6917.867,95.437,540.554,538.911,0.0
52695.0,STARLINK-4041,PAYLOAD,2024-05-03 12:06:52,15.08842929,0.0001131,53.218,299.9386,90.9031,269.2091,7.5129e-05,9.08e-06,0.0,0 STARLINK-4041,1 52695U 22053AR  24124.50476906  .00000908  00000-0  75129-4 0  9994,2 52695  53.2180 299.9386 0001131  90.9031 269.2091 15.08842929109166,6917.871,95.437,540.519,538.954,0.0
52695.0,STARLINK-4041,PAYLOAD,2024-05-03 18:28:24,15.0884912,0.0001082,53.2173,298.7492,89.6505,270.4611,0.00012237,1.661e-05,0.0,0 STARLINK-4041,1 52695U 22053AR  24124.76972303  .00001661  00000-0  12237-3 0  9991,2 52695  53.2173 298.7492 0001082  89.6505 270.4611 15.08849120108799,6917.853,95.437,540.466,538.969,0.0
52695.0,STARLINK-4041,PAYLOAD,2024-05-04 04:00:43,15.0883689,0.0001067,53.2166,296.9671,90.2069,269.9046,0.00011413,1.529e-05,0.0,0 STARLINK-4041,1 52695U 22053AR  24125.16716929  .00001529  00000-0  11413-3 0  9994,2 52695  53.2166 296.9671 0001067  90.2069 269.9046 15.08836890108858,6917.89,95.438,540.493,539.017,0.0
52695.0,STARLINK-4041,PAYLOAD,2024-05-04 11:57:40,15.08823661,0.0001065,53.2176,295.4776,75.8539,284.2571,-4.9838e-05,-1.08e-05,0.0,0 STARLINK-4041,1 52695U 22053AR  24125.49838505 -.00001080  00000-0 -49838-4 0  9992,2 52695  53.2176 295.4776 0001065  75.8539 284.2571 15.08823661108909,6917.93,95.439,540.532,539.059,0.0
52695.0,STARLINK-4041,PAYLOAD,2024-05-04 18:19:12,15.08831203,0.0001115,53.2181,294.2903,81.8011,278.3108,3.2269e-05,2.26e-06,0.0,0 STARLINK-4041,1 52695U 22053AR  24125.76334134  .00000226  00000-0  32269-4 0  9990,2 52695  53.2181 294.2903 0001115  81.8011 278.3108 15.08831203108947,6917.907,95.438,540.544,539.001,0.0
52695.0,STARLINK-4041,PAYLOAD,2024-05-05 03:51:31,15.08833513,0.0001156,53.2171,292.5061,79.3418,280.7704,-2.2453e-05,-6.45e-06,0.0,0 STARLINK-4041,1 52695U 22053AR  24126.16077783 -.00000645  00000-0 -22453-4 0  9990,2 52695  53.2171 292.5061 0001156  79.3418 280.7704 15.08833513109418,6917.9,95.438,540.565,538.966,0.0
52695.0,STARLINK-4041,PAYLOAD,2024-05-05 18:09:59,15.08845507,0.0001057,53.2173,289.8314,83.931,276.1803,0.00016263,2.302e-05,0.0,0 STARLINK-4041,1 52695U 22053AR  24126.75693457  .00002302  00000-0  16263-3 0  9998,2 52695  53.2173 289.8314 0001057  83.9310 276.1803 15.08845507109091,6917.864,95.437,540.46,538.997,0.0
52695.0,STARLINK-4041,PAYLOAD,2024-05-06 14:50:00,15.08849078,0.0001062,53.2162,285.9644,78.0835,282.0277,0.00042105,6.421e-05,0.0,0 STARLINK-4041,1 52695U 22053AR  24127.61805592  .00006421  00000-0  42105-3 0  9999,2 52695  53.2162 285.9644 0001062  78.0835 282.0277 15.08849078109633,6917.853,95.437,540.452,538.983,0.0
52695.0,STARLINK-4041,PAYLOAD,2024-05-06 19:36:08,15.08862712,0.0001087,53.2165,285.0724,79.5884,280.5231,0.00065401,0.00010142,0.0,0 STARLINK-4041,1 52695U 22053AR  24127.81677067  .00010142  00000-0  65401-3 0  9994,2 52695  53.2165 285.0724 0001087  79.5884 280.5231 15.08862712109254,6917.811,95.436,540.428,538.924,0.0
52695.0,STARLINK-4041,PAYLOAD,2024-05-07 03:33:05,15.0884734,0.0001757,53.2159,283.5851,83.14,276.9792,0.00024404,3.599e-05,0.0,0 STARLINK-4041,1 52695U 22053AR  24128.14797619  .00003599  00000-0  24404-3 0  9993,2 52695  53.2159 283.5851 0001757  83.1400 276.9792 15.08847340109307,6917.858,95.437,540.938,538.507,0.0
52695.0,STARLINK-4041,PAYLOAD,2024-05-07 14:40:47,15.0883723,8.8e-05,53.2166,281.505,93.258,266.8513,-5.4005e-05,-1.147e-05,0.0,0 STARLINK-4041,1 52695U 22053AR  24128.61165530 -.00001147  00000-0 -54005-4 0  9996,2 52695  53.2166 281.5050 0000880  93.2580 266.8513 15.08837230109789,6917.889,95.438,540.363,539.145,0.0
52695.0,STARLINK-4041,PAYLOAD,2024-05-07 19:26:56,15.08845348,0.0001028,53.2163,280.6118,90.0081,270.1029,0.00016924,2.407e-05,0.0,0 STARLINK-4041,1 52695U 22053AR  24128.81037407  .00002407  00000-0  16924-3 0  9994,2 52695  53.2163 280.6118 0001028  90.0081 270.1029 15.08845348109810,6917.864,95.437,540.44,539.018,0.0
52695.0,STARLINK-4041,PAYLOAD,2024-05-08 03:23:52,15.08837344,9.1e-05,53.2159,279.1227,92.2366,267.873,4.2561e-05,3.9e-06,0.0,0 STARLINK-4041,1 52695U 22053AR  24129.14157690  .00000390  00000-0  42561-4 0  9994,2 52695  53.2159 279.1227 0000910  92.2366 267.8730 15.08837344109457,6917.889,95.438,540.383,539.124,0.0
52695.0,STARLINK-4041,PAYLOAD,2024-05-08 14:31:34,15.08840718,0.0001298,53.2164,277.0432,83.1457,276.9682,0.00015429,2.169e-05,0.0,0 STARLINK-4041,1 52695U 22053AR  24129.60526033  .00002169  00000-0  15429-3 0  9994,2 52695  53.2164 277.0432 0001298  83.1457 276.9682 15.08840718109937,6917.878,95.438,540.641,538.845,0.0
52695.0,STARLINK-4041,PAYLOAD,2024-05-08 16:06:57,15.08840556,0.0001248,53.216,276.7457,87.0219,273.0916,0.00023506,3.455e-05,0.0,0 STARLINK-4041,1 52695U 22053AR  24129.67150030  .00003455  00000-0  23506-3 0  9995,2 52695  53.2160 276.7457 0001248  87.0219 273.0916 15.08840556109949,6917.879,95.438,540.607,538.88,0.0
52695.0,STARLINK-4041,PAYLOAD,2024-05-09 12:46:58,15.08845003,0.0001235,53.2155,272.8799,86.4347,273.6786,0.00037034,5.612e-05,0.0,0 STARLINK-4041,1 52695U 22053AR  24130.53262151  .00005612  00000-0  37034-3 0  9998,2 52695  53.2155 272.8799 0001235  86.4347 273.6786 15.08845003109662,6917.865,95.437,540.584,538.876,0.0
52695.0,STARLINK-4041,PAYLOAD,2024-05-09 14:22:21,15.08847278,0.0001251,53.2156,272.5824,86.8204,273.2932,0.00040711,6.198e-05,0.0,0 STARLINK-4041,1 52695U 22053AR  24130.59886066  .00006198  00000-0  40711-3 0  9997,2 52695  53.2156 272.5824 0001251  86.8204 273.2932 15.08847278110086,6917.858,95.437,540.589,538.858,0.0
52695.0,STARLINK-4041,PAYLOAD,2024-05-09 15:57:44,15.08851756,0.0001106,53.2183,272.2837,101.2516,258.86,0.00049,7.522e-05,0.0,0 STARLINK-4041,1 52695U 22053AR  24130.66509853  .00007522  00000-0  49000-3 0  9993,2 52695  53.2183 272.2837 0001106 101.2516 258.8600 15.08851756110092,6917.844,95.437,540.475,538.944,0.0
52695.0,STARLINK-4041,PAYLOAD,2024-05-10 12:37:45,15.08843154,0.0001198,53.2144,268.4173,96.9066,263.2063,0.00020602,2.993e-05,0.0,0 STARLINK-4041,1 52695U 22053AR  24131.52622338  .00002993  00000-0  20602-3 0  9997,2 52695  53.2144 268.4173 0001198  96.9066 263.2063 15.08843154109814,6917.871,95.437,540.565,538.907,0.0
52695.0,STARLINK-4041,PAYLOAD,2024-05-10 18:59:18,15.08850253,0.0001136,53.217,267.2309,70.0323,290.0792,0.00041985,6.402e-05,0.0,0 STARLINK-4041,1 52695U 22053AR  24131.79118247  .00006402  00000-0  41985-3 0  9991,2 52695  53.2170 267.2309 0001136  70.0323 290.0792 15.08850253110268,6917.849,95.437,540.5,538.928,0.0
52695.0,STARLINK-4041,PAYLOAD,2024-05-11 15:39:18,15.08799628,0.0001707,53.2181,263.3634,86.3255,273.7932,-0.0016772,-0.00026852,0.0,0 STARLINK-4041,1 52695U 22053AR  24132.65230105 -.00026852  00000-0 -16772-2 0  9993,2 52695  53.2181 263.3634 0001707  86.3255 273.7932 15.08799628109985,6918.004,95.44,541.05,538.688,0.0
52695.0,STARLINK-4041,PAYLOAD,2024-05-12 12:19:22,15.08833841,0.0001535,53.2173,259.5,100.2097,259.9068,0.0021264,0.0003371,0.0,0 STARLINK-4041,1 52695U 22053AR  24133.51344942  .00033710  00000-0  21264-2 0  9995,2 52695  53.2173 259.5000 0001535 100.2097 259.9068 15.08833841110118,6917.899,95.438,540.826,538.702,0.0
52695.0,STARLINK-4041,PAYLOAD,2024-05-12 13:54:45,15.08844384,0.0001561,53.2174,259.2022,99.9184,260.1985,0.0022212,0.00035244,0.0,0 STARLINK-4041,1 52695U 22053AR  24133.57969028  .00035244  00000-0  22212-2 0  9997,2 52695  53.2174 259.2022 0001561  99.9184 260.1985 15.08844384110532,6917.867,95.437,540.812,538.652,0.0
